ORBCOMM FM33            
1 25983U 99065D   24156.27145698  .00001616  00000+0  57805-3 0  9997
2 25983  45.0305 352.6882 0008052 318.3241  41.6993 14.37801148281636
ORBCOMM FM36            
1 25984U 99065E   24156.48661610  .00002094  00000+0  76701-3 0  9995
2 25984  45.0403  77.5946 0002570 214.5312 145.5369 14.35700007280095
ORBCOMM FM35            
1 25985U 99065F   24156.46655396  .00001567  00000+0  59133-3 0  9992
2 25985  45.0404  80.4212 0004237 314.7410  45.3093 14.35248066280486
ORBCOMM FM34            
1 25986U 99065G   24156.50714416  .00001688  00000+0  63364-3 0  9992
2 25986  45.0399  80.7699 0003841 267.8895  92.1513 14.35218361280603
ORBCOMM FM38            
1 33060U 08031A   24156.45088171  .00003327  00000+0  48768-3 0  9996
2 33060  48.4409 310.6068 0006191 225.0406 135.0006 14.77730185858811
ORBCOMM FM41            
1 33061U 08031B   24156.19499573  .00003220  00000+0  47597-3 0  9991
2 33061  48.4446 318.4992 0005198 212.0016 318.1581 14.77453098858271
ORBCOMM FM29            
1 33062U 08031C   24156.57989862  .00003403  00000+0  50191-3 0  9996
2 33062  48.4399 324.7123 0007051 209.6289 265.3988 14.77394760858240
